{
  "links" : {
    "next" : "https://api.nasa.gov/neo/rest/v1/feed?start_date=1995-08-16&end_date=1995-08-16&detailed=true&api_key=t0TVs3DtDT2H8Oy2Zy8m2eVrNsAVKAexjcZXUckd",
    "prev" : "https://api.nasa.gov/neo/rest/v1/feed?start_date=1995-08-14&end_date=1995-08-14&detailed=true&api_key=t0TVs3DtDT2H8Oy2Zy8m2eVrNsAVKAexjcZXUckd",
    "self" : "https://api.nasa.gov/neo/rest/v1/feed?start_date=1995-08-15&end_date=1995-08-15&detailed=true&api_key=t0TVs3DtDT2H8Oy2Zy8m2eVrNsAVKAexjcZXUckd"
  },
  "element_count" : 5,
  "near_earth_objects" : {
    "1995-08-15" : [ {
      "links" : {
        "self" : "https://api.nasa.gov/neo/rest/v1/neo/3623682?api_key=t0TVs3DtDT2H8Oy2Zy8m2eVrNsAVKAexjcZXUckd"
      },
      "neo_reference_id" : "3623682",
      "name" : "(2013 AF53)",
      "nasa_jpl_url" : "http://ssd.jpl.nasa.gov/sbdb.cgi?sstr=3623682",
      "absolute_magnitude_h" : 26.5,
      "estimated_diameter" : {
        "kilometers" : {
          "estimated_diameter_min" : 0.0133215567,
          "estimated_diameter_max" : 0.0297879063
        },
        "meters" : {
          "estimated_diameter_min" : 13.3215566698,
          "estimated_diameter_max" : 29.7879062798
        },
        "miles" : {
          "estimated_diameter_min" : 0.008277629,
          "estimated_diameter_max" : 0.0185093411
        },
        "feet" : {
          "estimated_diameter_min" : 43.7058959846,
          "estimated_diameter_max" : 97.7293544391
        }
      },
      "is_potentially_hazardous_asteroid" : false,
      "close_approach_data" : [ {
        "close_approach_date" : "1995-08-15",
        "epoch_date_close_approach" : 808470000000,
        "relative_velocity" : {
          "kilometers_per_second" : "15.4970037958",
          "kilometers_per_hour" : "55789.2136648847",
          "miles_per_hour" : "34665.2477908279"
        },
        "miss_distance" : {
          "astronomical" : "0.2905427237",
          "lunar" : "113.0211181641",
          "kilometers" : "43464572",
          "miles" : "27007634"
        },
        "orbiting_body" : "Earth"
      } ],
      "orbital_data" : {
        "orbit_id" : "7",
        "orbit_determination_date" : "2017-04-06 08:47:19",
        "orbit_uncertainty" : "7",
        "minimum_orbit_intersection" : ".0200872",
        "jupiter_tisserand_invariant" : "6.076",
        "epoch_osculation" : "2458000.5",
        "eccentricity" : ".1944668036041747",
        "semi_major_axis" : ".9928418174587027",
        "inclination" : "12.93289524955619",
        "ascending_node_longitude" : "107.308006136735",
        "orbital_period" : "361.342061746365",
        "perihelion_distance" : ".7997670427329493",
        "perihelion_argument" : "105.9025698631637",
        "aphelion_distance" : "1.185916592184456",
        "perihelion_time" : "2457830.558526909266",
        "mean_anomaly" : "169.3102929035901",
        "mean_motion" : ".9962858966933469",
        "equinox" : "J2000"
      }
    }, {
      "links" : {
        "self" : "https://api.nasa.gov/neo/rest/v1/neo/3724948?api_key=t0TVs3DtDT2H8Oy2Zy8m2eVrNsAVKAexjcZXUckd"
      },
      "neo_reference_id" : "3724948",
      "name" : "(2015 PD)",
      "nasa_jpl_url" : "http://ssd.jpl.nasa.gov/sbdb.cgi?sstr=3724948",
      "absolute_magnitude_h" : 19.2,
      "estimated_diameter" : {
        "kilometers" : {
          "estimated_diameter_min" : 0.3841978911,
          "estimated_diameter_max" : 0.8590926012
        },
        "meters" : {
          "estimated_diameter_min" : 384.1978910643,
          "estimated_diameter_max" : 859.0926012318
        },
        "miles" : {
          "estimated_diameter_min" : 0.2387294278,
          "estimated_diameter_max" : 0.5338152287
        },
        "feet" : {
          "estimated_diameter_min" : 1260.4918089193,
          "estimated_diameter_max" : 2818.5453698252
        }
      },
      "is_potentially_hazardous_asteroid" : false,
      "close_approach_data" : [ {
        "close_approach_date" : "1995-08-15",
        "epoch_date_close_approach" : 808470000000,
        "relative_velocity" : {
          "kilometers_per_second" : "19.8851596295",
          "kilometers_per_hour" : "71586.5746661539",
          "miles_per_hour" : "44481.1135751999"
        },
        "miss_distance" : {
          "astronomical" : "0.2243627035",
          "lunar" : "87.27709198",
          "kilometers" : "33564184",
          "miles" : "20855816"
        },
        "orbiting_body" : "Earth"
      } ],
      "orbital_data" : {
        "orbit_id" : "39",
        "orbit_determination_date" : "2017-04-06 08:32:36",
        "orbit_uncertainty" : "2",
        "minimum_orbit_intersection" : ".180276",
        "jupiter_tisserand_invariant" : "3.715",
        "epoch_osculation" : "2458000.5",
        "eccentricity" : ".6364788257474345",
        "semi_major_axis" : "1.847854685254643",
        "inclination" : "12.09591999913569",
        "ascending_node_longitude" : "242.8083220263312",
        "orbital_period" : "917.4874872415662",
        "perihelion_distance" : ".6717343050318725",
        "perihelion_argument" : "165.6231304285062",
        "aphelion_distance" : "3.023975065477413",
        "perihelion_time" : "2458249.852021867363",
        "mean_anomaly" : "262.1602701720379",
        "mean_motion" : ".3923759233843537",
        "equinox" : "J2000"
      }
    } ]
  }
}